{
  "norad_id": 55054,
  "name": "SKYKRAFT-1A",
  "history": [
    {
      "epoch": "2026-03-28T16:46:49.096704Z",
      "apogee_km": 488.332696630654,
      "perigee_km": 473.10630954805583,
      "latitude_deg": 4.0620006294115295e-05,
      "longitude_deg": 68.50264673075482,
      "height_km": 480.4255628699665,
      "semi_major_axis_km": 6858.856503089354,
      "eccentricity": 0.00110998,
      "inclination_deg": 97.3315,
      "raan_deg": 146.3231,
      "arg_perigee_deg": 63.6811,
      "mean_anomaly_deg": 296.5568,
      "mean_motion_rev_day": 15.28358324
    },
    {
      "epoch": "2026-03-29T03:46:46.343712Z",
      "apogee_km": 488.2823390006615,
      "perigee_km": 473.1078588649834,
      "latitude_deg": -1.096772176053505e-05,
      "longitude_deg": -96.48649844751677,
      "height_km": 480.2424785176163,
      "semi_major_axis_km": 6858.832098932822,
      "eccentricity": 0.0011062,
      "inclination_deg": 97.3313,
      "raan_deg": 146.7742,
      "arg_perigee_deg": 62.2343,
      "mean_anomaly_deg": 298.0017,
      "mean_motion_rev_day": 15.28366481
    },
    {
      "epoch": "2026-03-30T03:20:56.810688Z",
      "apogee_km": 488.18183608968866,
      "perigee_km": 473.08842214235483,
      "latitude_deg": -3.965197171180782e-06,
      "longitude_deg": -90.03127916959586,
      "height_km": 479.84045607495165,
      "semi_major_axis_km": 6858.7721291160215,
      "eccentricity": 0.0011003,
      "inclination_deg": 97.3314,
      "raan_deg": 147.741,
      "arg_perigee_deg": 59.0823,
      "mean_anomaly_deg": 301.1497,
      "mean_motion_rev_day": 15.28386526
    },
    {
      "epoch": "2026-03-30T03:20:56.811552Z",
      "apogee_km": 488.1816989142453,
      "perigee_km": 473.0885593177982,
      "latitude_deg": -2.003694444536422e-06,
      "longitude_deg": -90.03128303042489,
      "height_km": 479.8405265720965,
      "semi_major_axis_km": 6858.7721291160215,
      "eccentricity": 0.00110028,
      "inclination_deg": 97.3314,
      "raan_deg": 147.741,
      "arg_perigee_deg": 59.0823,
      "mean_anomaly_deg": 301.1497,
      "mean_motion_rev_day": 15.28386526
    },
    {
      "epoch": "2026-03-30T09:38:03.447456Z",
      "apogee_km": 488.1566563802162,
      "perigee_km": 473.08919539982253,
      "latitude_deg": 5.7651786109929295e-05,
      "longitude_deg": 175.6908370067895,
      "height_km": 479.74915676954856,
      "semi_major_axis_km": 6858.759925890019,
      "eccentricity": 0.00109841,
      "inclination_deg": 97.3314,
      "raan_deg": 147.9989,
      "arg_perigee_deg": 58.3169,
      "mean_anomaly_deg": 301.9141,
      "mean_motion_rev_day": 15.28390605
    },
    {
      "epoch": "2026-03-30T17:29:26.632608Z",
      "apogee_km": 488.1275788938856,
      "perigee_km": 473.08128346664853,
      "latitude_deg": 9.395007562559753e-05,
      "longitude_deg": 57.843775402139926,
      "height_km": 479.6240251276507,
      "semi_major_axis_km": 6858.741431180267,
      "eccentricity": 0.00109687,
      "inclination_deg": 97.3312,
      "raan_deg": 148.3211,
      "arg_perigee_deg": 57.3045,
      "mean_anomaly_deg": 302.9252,
      "mean_motion_rev_day": 15.28396787
    }
  ]
}